[Satellite]
VERSION=1.1
NAME=COSMOS 1867
NICKNAME=COSMOS 1867
TLE1=1 18187U 87060A   20157.71872678 -.00000112  00000-0 -45189-5 0  9995
TLE2=2 18187  65.0117  73.5733 0013647 269.3476  90.6045 14.31111911718961
STATUS=0
